{
  "type": "FeatureCollection",
  "features": [
    {
      "type": "Feature",
      "properties": {
        "norad_id": 36990,
        "name": "FENGYUN 1C DEB",
        "group": "fengyun-1c-debris",
        "lat": 17.711561862731013,
        "lon": 122.71433595727866,
        "alt_km": 1251.5422620162226,
        "timestamp": "2025-12-20T16:47:36.575677+00:00",
        "meta_object_name": "FENGYUN 1C DEB",
        "meta_object_id": "1999-025EBW",
        "meta_epoch": "2025-12-05T02:36:38.289600",
        "meta_mean_motion": 13.56914719,
        "meta_eccentricity": 0.0292772,
        "meta_inclination": 96.5839,
        "meta_ra_of_asc_node": 290.134,
        "meta_arg_of_pericenter": 44.0413,
        "meta_mean_anomaly": 318.3658,
        "meta_ephemeris_type": 0,
        "meta_classification_type": "U",
        "meta_norad_cat_id": 36990,
        "meta_element_set_no": 999,
        "meta_rev_at_epoch": 82784,
        "meta_bstar": 0.0013157618,
        "meta_mean_motion_dot": 1.212e-05,
        "meta_mean_motion_ddot": 0,
        "tle_line1": "1 36990U 99025EBW 25339.10877650  .00001212  00000+0  13158-2 0  9993",
        "tle_line2": "2 36990  96.5839 290.1340 0292772  44.0413 318.3658 13.56914719827842"
      },
      "geometry": {
        "type": "Point",
        "coordinates": [
          122.71433595727866,
          17.711561862731013
        ]
      }
    },
    {
      "type": "Feature",
      "properties": {
        "norad_id": 36994,
        "name": "FENGYUN 1C DEB",
        "group": "fengyun-1c-debris",
        "lat": -30.07985795350736,
        "lon": 131.34605471716705,
        "alt_km": 890.2307322570805,
        "timestamp": "2025-12-20T16:47:36.575687+00:00",
        "meta_object_name": "FENGYUN 1C DEB",
        "meta_object_id": "1999-025ECA",
        "meta_epoch": "2025-12-16T08:10:41.996640",
        "meta_mean_motion": 13.90788308,
        "meta_eccentricity": 0.0114556,
        "meta_inclination": 98.643,
        "meta_ra_of_asc_node": 312.3437,
        "meta_arg_of_pericenter": 283.1778,
        "meta_mean_anomaly": 75.6623,
        "meta_ephemeris_type": 0,
        "meta_classification_type": "U",
        "meta_norad_cat_id": 36994,
        "meta_element_set_no": 999,
        "meta_rev_at_epoch": 80957,
        "meta_bstar": 0.00016418343,
        "meta_mean_motion_dot": 1.75e-06,
        "meta_mean_motion_ddot": 0,
        "tle_line1": "1 36994U 99025ECA 25350.34076385  .00000175  00000+0  16418-3 0  9992",
        "tle_line2": "2 36994  98.6430 312.3437 0114556 283.1778  75.6623 13.90788308809579"
      },
      "geometry": {
        "type": "Point",
        "coordinates": [
          131.34605471716705,
          -30.07985795350736
        ]
      }
    },
    {
      "type": "Feature",
      "properties": {
        "norad_id": 36995,
        "name": "FENGYUN 1C DEB",
        "group": "fengyun-1c-debris",
        "lat": 21.33787364458541,
        "lon": 56.05504876586533,
        "alt_km": 894.5154462598457,
        "timestamp": "2025-12-20T16:47:36.575698+00:00",
        "meta_object_name": "FENGYUN 1C DEB",
        "meta_object_id": "1999-025ECB",
        "meta_epoch": "2025-12-19T09:16:16.802976",
        "meta_mean_motion": 14.04869062,
        "meta_eccentricity": 0.003843,
        "meta_inclination": 98.3428,
        "meta_ra_of_asc_node": 231.561,
        "meta_arg_of_pericenter": 291.755,
        "meta_mean_anomaly": 67.9531,
        "meta_ephemeris_type": 0,
        "meta_classification_type": "U",
        "meta_norad_cat_id": 36995,
        "meta_element_set_no": 999,
        "meta_rev_at_epoch": 63650,
        "meta_bstar": 0.0002061,
        "meta_mean_motion_dot": 2.94e-06,
        "meta_mean_motion_ddot": 0,
        "tle_line1": "1 36995U 99025ECB 25353.38630559  .00000294  00000+0  20610-3 0  9990",
        "tle_line2": "2 36995  98.3428 231.5610 0038430 291.7550  67.9531 14.04869062636504"
      },
      "geometry": {
        "type": "Point",
        "coordinates": [
          56.05504876586533,
          21.33787364458541
        ]
      }
    },
    {
      "type": "Feature",
      "properties": {
        "norad_id": 36996,
        "name": "FENGYUN 1C DEB",
        "group": "fengyun-1c-debris",
        "lat": 76.55071528805682,
        "lon": 3.5067331556677463,
        "alt_km": 972.9062157145463,
        "timestamp": "2025-12-20T16:47:36.575708+00:00",
        "meta_object_name": "FENGYUN 1C DEB",
        "meta_object_id": "1999-025ECC",
        "meta_epoch": "2025-12-19T06:51:36.156096",
        "meta_mean_motion": 14.11557729,
        "meta_eccentricity": 0.0254059,
        "meta_inclination": 98.2257,
        "meta_ra_of_asc_node": 144.9888,
        "meta_arg_of_pericenter": 330.3469,
        "meta_mean_anomaly": 147.4127,
        "meta_ephemeris_type": 0,
        "meta_classification_type": "U",
        "meta_norad_cat_id": 36996,
        "meta_element_set_no": 999,
        "meta_rev_at_epoch": 59784,
        "meta_bstar": 0.00056112,
        "meta_mean_motion_dot": 1.337e-05,
        "meta_mean_motion_ddot": 0,
        "tle_line1": "1 36996U 99025ECC 25353.28583514  .00001337  00000+0  56112-3 0  9993",
        "tle_line2": "2 36996  98.2257 144.9888 0254059 330.3469 147.4127 14.11557729597844"
      },
      "geometry": {
        "type": "Point",
        "coordinates": [
          3.5067331556677463,
          76.55071528805682
        ]
      }
    },
    {
      "type": "Feature",
      "properties": {
        "norad_id": 37003,
        "name": "FENGYUN 1C DEB",
        "group": "fengyun-1c-debris",
        "lat": 69.10642015394446,
        "lon": -6.063049661017738,
        "alt_km": 874.8604377575739,
        "timestamp": "2025-12-20T16:47:36.575718+00:00",
        "meta_object_name": "FENGYUN 1C DEB",
        "meta_object_id": "1999-025ECK",
        "meta_epoch": "2025-12-18T07:48:02.434752",
        "meta_mean_motion": 13.96231437,
        "meta_eccentricity": 0.00968579,
        "meta_inclination": 98.8458,
        "meta_ra_of_asc_node": 15.7304,
        "meta_arg_of_pericenter": 147.1253,
        "meta_mean_anomaly": 235.2095,
        "meta_ephemeris_type": 0,
        "meta_classification_type": "U",
        "meta_norad_cat_id": 37003,
        "meta_element_set_no": 999,
        "meta_rev_at_epoch": 60735,
        "meta_bstar": 0.00036300048,
        "meta_mean_motion_dot": 4.78e-06,
        "meta_mean_motion_ddot": 0,
        "tle_line1": "1 37003U 99025ECK 25352.32502818  .00000478  00000+0  36300-3 0  9997",
        "tle_line2": "2 37003  98.8458  15.7304 0096857 147.1253 235.2095 13.96231437607351"
      },
      "geometry": {
        "type": "Point",
        "coordinates": [
          -6.063049661017738,
          69.10642015394446
        ]
      }
    },
    {
      "type": "Feature",
      "properties": {
        "norad_id": 37006,
        "name": "FENGYUN 1C DEB",
        "group": "fengyun-1c-debris",
        "lat": 76.65339810461805,
        "lon": 107.75241310347958,
        "alt_km": 822.1643137637011,
        "timestamp": "2025-12-20T16:47:36.575728+00:00",
        "meta_object_name": "FENGYUN 1C DEB",
        "meta_object_id": "1999-025ECN",
        "meta_epoch": "2025-12-19T10:28:57.061920",
        "meta_mean_motion": 14.48944917,
        "meta_eccentricity": 0.0255191,
        "meta_inclination": 99.2983,
        "meta_ra_of_asc_node": 242.6867,
        "meta_arg_of_pericenter": 228.1435,
        "meta_mean_anomaly": 129.7724,
        "meta_ephemeris_type": 0,
        "meta_classification_type": "U",
        "meta_norad_cat_id": 37006,
        "meta_element_set_no": 999,
        "meta_rev_at_epoch": 65211,
        "meta_bstar": 0.00044029,
        "meta_mean_motion_dot": 2.456e-05,
        "meta_mean_motion_ddot": 0,
        "tle_line1": "1 37006U 99025ECN 25353.43677155  .00002456  00000+0  44029-3 0  9995",
        "tle_line2": "2 37006  99.2983 242.6867 0255191 228.1435 129.7724 14.48944917652119"
      },
      "geometry": {
        "type": "Point",
        "coordinates": [
          107.75241310347958,
          76.65339810461805
        ]
      }
    },
    {
      "type": "Feature",
      "properties": {
        "norad_id": 37008,
        "name": "FENGYUN 1C DEB",
        "group": "fengyun-1c-debris",
        "lat": 50.05978950502742,
        "lon": 102.56686466526297,
        "alt_km": 906.9864089698758,
        "timestamp": "2025-12-20T16:47:36.575738+00:00",
        "meta_object_name": "FENGYUN 1C DEB",
        "meta_object_id": "1999-025ECQ",
        "meta_epoch": "2025-12-18T18:30:00.286560",
        "meta_mean_motion": 14.07953439,
        "meta_eccentricity": 0.00624739,
        "meta_inclination": 99.1348,
        "meta_ra_of_asc_node": 111.6946,
        "meta_arg_of_pericenter": 236.931,
        "meta_mean_anomaly": 122.585,
        "meta_ephemeris_type": 0,
        "meta_classification_type": "U",
        "meta_norad_cat_id": 37008,
        "meta_element_set_no": 999,
        "meta_rev_at_epoch": 60399,
        "meta_bstar": 0.0010654755,
        "meta_mean_motion_dot": 1.797e-05,
        "meta_mean_motion_ddot": 0,
        "tle_line1": "1 37008U 99025ECQ 25352.77083665  .00001797  00000+0  10655-2 0  9994",
        "tle_line2": "2 37008  99.1348 111.6946 0062473 236.9310 122.5850 14.07953439603993"
      },
      "geometry": {
        "type": "Point",
        "coordinates": [
          102.56686466526297,
          50.05978950502742
        ]
      }
    }
  ]
}